******************************************************************************* Revised: Jul 31, 2013              Venus                               299 / 2  GEOPHYSICAL DATA (updated 2014-Mar-13):  Mean radius (km)      =   6051.8(4+-1)  Density (g cm^-3)     =  5.204   Mass (10^23 kg )      =     48.685      Flattening, f         =    Volume (x10^10 km^3)  =     92.843      Semi-major axis       =    Sidereal rot. period  =   -243.0185 d   Rot. Rate (x10^5 s)   = -0.029924   Mean solar day        =    116.7490 d   Polar gravity ms^-2   =     Mom. of Inertia       =      0.33       Equ. gravity  ms^-2   =  8.870   Core radius (km)      =  ~3200          Potential Love # k2   = ~0.25   Grav spectral fact u  =      1.5        Topo. spectral fact t =  23         Fig. offset (Rcf-Rcm) =      0.19+-01   Offset (lat./long.)   = 11/102 dg/dg   GM (km^3 s^-2)        = 324858.63       Equatorial Radius, Re = 6051.893 km   GM 1-sigma (km^3 s^-2)=    +-0.04       Mass ratio (Sun/Venus)= 408523.72    Atmos. pressure (bar) =    90           Max. angular diam.    =   60.2"   Mean Temperature (K)  =  735            Visual mag. V(1,0)    =   -4.40   Geometric albedo      =    0.65         Obliquity to orbit    =  177.3 deg   Sidereal orb. per.    =    0.61519726 y Orbit vel.  km/s      =   35.0214   Sidereal orb. per.    =  224.70079922 d Escape vel. km/s      =   10.361   Hill's sphere rad. Rp =  167.1          Planetary Solar Const = 2613.9 (Wm^2) *******************************************************************************  *******************************************************************************Ephemeris / WWW_USER Fri Oct 20 06:51:55 2017 Pasadena, USA      / Horizons    *******************************************************************************Target body name: Venus (299)                     {source: DE431mx}Center body name: Solar System Barycenter (0)     {source: DE431mx}Center-site name: BODY CENTER*******************************************************************************Start time      : A.D. 2017-Oct-20 00:00:00.0000 TDBStop  time      : A.D. 2017-Oct-21 00:00:00.0000 TDBStep-size       : 1440 minutes*******************************************************************************Center geodetic : 0.00000000,0.00000000,0.0000000 {E-lon(deg),Lat(deg),Alt(km)}Center cylindric: 0.00000000,0.00000000,0.0000000 {E-lon(deg),Dxy(km),Dz(km)}Center radii    : (undefined)                                                  Output units    : AU-D                                                         Output type     : GEOMETRIC cartesian statesOutput format   : 3 (position, velocity, LT, range, range-rate)Reference frame : ICRF/J2000.0                                                 Coordinate systm: Ecliptic and Mean Equinox of Reference Epoch                 *******************************************************************************JDTDB   X     Y     Z   VX    VY    VZ   LT    RG    RR*******************************************************************************$$SOE2458046.500000000 = A.D. 2017-Oct-20 00:00:00.0000 TDB  X =-6.659025735517159E-01 Y = 2.679456344309009E-01 Z = 4.202093570001260E-02 VX=-7.487959643868251E-03 VY=-1.891686948899370E-02 VZ= 1.723630250669739E-04 LT= 4.152701539975760E-03 RG= 7.190179827448552E-01 RR=-1.045845102388692E-042458047.500000000 = A.D. 2017-Oct-21 00:00:00.0000 TDB  X =-6.731235895305516E-01 Y = 2.489268980608740E-01 Z = 4.217649695497173E-02 VX=-6.953138808264029E-03 VY=-1.911806982600818E-02 VZ= 1.387403666261273E-04 LT= 4.152106950160928E-03 RG= 7.189150327097745E-01 RR=-1.013033246105548E-04$$EOE*******************************************************************************Coordinate system description:  Ecliptic and Mean Equinox of Reference Epoch    Reference epoch: J2000.0    XY-plane: plane of the Earth's orbit at the reference epoch              Note: obliquity of 84381.448 arcseconds wrt ICRF equator (IAU76)    X-axis  : out along ascending node of instantaneous plane of the Earth's              orbit and the Earth's mean equator at the reference epoch    Z-axis  : perpendicular to the xy-plane in the directional (+ or -) sense              of Earth's north pole at the reference epoch.  Symbol meaning [1 au= 149597870.700 km, 1 day= 86400.0 s]:    JDTDB    Julian Day Number, Barycentric Dynamical Time      X      X-component of position vector (au)                                     Y      Y-component of position vector (au)                                     Z      Z-component of position vector (au)                                     VX     X-component of velocity vector (au/day)                                 VY     Y-component of velocity vector (au/day)                                 VZ     Z-component of velocity vector (au/day)                                 LT     One-way down-leg Newtonian light-time (day)                             RG     Range; distance from coordinate center (au)                             RR     Range-rate; radial velocity wrt coord. center (au/day)            Geometric states/elements have no aberrations applied. Computations by ...     Solar System Dynamics Group, Horizons On-Line Ephemeris System     4800 Oak Grove Drive, Jet Propulsion Laboratory     Pasadena, CA  91109   USA     Information: http://ssd.jpl.nasa.gov/     Connect    : telnet://ssd.jpl.nasa.gov:6775  (via browser)                  http://ssd.jpl.nasa.gov/?horizons                  telnet ssd.jpl.nasa.gov 6775    (via command-line)     Author     : Jon.D.Giorgini@jpl.nasa.gov*******************************************************************************